NORAD_CAT_ID,OBJECT_NAME,OBJECT_TYPE,EPOCH,MEAN_MOTION,ECCENTRICITY,INCLINATION,RA_OF_ASC_NODE,ARG_OF_PERICENTER,MEAN_ANOMALY,BSTAR,MEAN_MOTION_DOT,MEAN_MOTION_DDOT,TLE_LINE0,TLE_LINE1,TLE_LINE2,SEMIMAJOR_AXIS,PERIOD,APOGEE,PERIGEE,DECAYED
51147.0,STARLINK-3352,PAYLOAD,2022-03-31 06:00:00,15.16074894,0.0001299,53.2179,291.1046,51.7372,5.2668,-0.029746,-0.00544121,0.0,0 STARLINK-3352,1 51147U 22005AV  22090.25001157 -.00544121  00000-0 -29746-1 0  9999,2 51147  53.2179 291.1046 0001299  51.7372   5.2668 15.16074894 12405,6895.854,94.982,518.615,516.823,0.0
51147.0,STARLINK-3352,PAYLOAD,2022-03-31 14:00:01,15.15692064,0.0001453,53.2176,289.5953,56.7626,20.301,-0.036722,-0.0066292,0.0,0 STARLINK-3352,1 51147U 22005AV  22090.58334491 -.00662920  00000-0 -36722-1 0  9995,2 51147  53.2176 289.5953 0001453  56.7626  20.3010 15.15692064 12457,6897.015,95.006,519.882,517.878,0.0
51147.0,STARLINK-3352,PAYLOAD,2022-03-31 22:00:00,15.15226988,0.000159,53.2176,288.0878,50.5965,46.0098,-0.037416,-0.00666334,0.0,0 STARLINK-3352,1 51147U 22005AV  22090.91667824 -.00666334  00000-0 -37416-1 0  9995,2 51147  53.2176 288.0878 0001590  50.5965  46.0098 15.15226988  3658,6898.427,95.035,521.388,519.195,0.0
51147.0,STARLINK-3352,PAYLOAD,2022-04-01 14:00:01,15.14292609,0.0001518,53.2177,285.0709,59.0932,74.9208,-0.038252,-0.00663554,0.0,0 STARLINK-3352,1 51147U 22005AV  22091.58334491 -.00663554  00000-0 -38252-1 0  9990,2 51147  53.2177 285.0709 0001518  59.0932  74.9208 15.14292609  3641,6901.264,95.094,524.177,522.081,0.0
51147.0,STARLINK-3352,PAYLOAD,2022-04-01 22:00:00,15.13825642,0.0001641999999999,53.2176,283.5667,53.6643,98.2113,-0.038757,-0.00663503,0.0,0 STARLINK-3352,1 51147U 22005AV  22091.91667824 -.00663503  00000-0 -38757-1 0  9990,2 51147  53.2176 283.5667 0001642  53.6643  98.2113 15.13825642 12667,6902.683000000001,95.123,525.682,523.415,0.0
51147.0,STARLINK-3352,PAYLOAD,2022-04-02 22:00:01,15.12424615,0.0001569,53.2175,279.0551,61.6023,140.5597,-0.040158,-0.00661052,0.0,0 STARLINK-3352,1 51147U 22005AV  22092.91668981 -.00661052  00000-0 -40158-1 0  9991,2 51147  53.2175 279.0551 0001569  61.6023 140.5597 15.12424615 12815,6906.945,95.211,529.894,527.727,0.0
51147.0,STARLINK-3352,PAYLOAD,2022-04-03 22:00:00,15.11024368,0.0001449,53.2176,274.5535,72.6613,174.6149,-0.041678,-0.0065982,0.0,0 STARLINK-3352,1 51147U 22005AV  22093.91667824 -.00659820  00000-0 -41678-1 0  9995,2 51147  53.2176 274.5535 0001449  72.6613 174.6149 15.11024368 12969,6911.212,95.3,534.078,532.075,0.0
51147.0,STARLINK-3352,PAYLOAD,2022-04-04 14:00:01,15.10093516,0.0001495,53.2177,271.5563,63.1559,211.4353,-0.043026,-0.00663536,0.0,0 STARLINK-3352,1 51147U 22005AV  22094.58334491 -.00663536  00000-0 -43026-1 0  9998,2 51147  53.2177 271.5563 0001495  63.1559 211.4353 15.10093516  3656,6914.052,95.358,536.95,534.883,0.0
51147.0,STARLINK-3352,PAYLOAD,2022-04-04 22:00:00,15.09625179,0.0001409,53.2175,270.0611,70.2712,217.1365,-0.043408,-0.00660974,0.0,0 STARLINK-3352,1 51147U 22005AV  22094.91667824 -.00660974  00000-0 -43408-1 0  9991,2 51147  53.2175 270.0611 0001409  70.2712 217.1365 15.09625179 13119,6915.481,95.388,538.321,536.372,0.0
51147.0,STARLINK-3352,PAYLOAD,2022-04-05 14:00:01,15.08895287,0.0001526,53.2193,267.057,67.7623,243.7648,-0.0022481,-0.00035942,0.0,0 STARLINK-3352,1 51147U 22005AV  22095.58335648 -.00035942  00000-0 -22481-2 0  9991,2 51147  53.2193 267.0570 0001526  67.7623 243.7648 15.08895287 13219,6917.7109999999975,95.434,540.632,538.521,0.0
51147.0,STARLINK-3352,PAYLOAD,2022-04-05 22:00:00,15.08853606,0.0001543,53.2192,265.5617,60.3475,262.7657,0.0041217,0.00065948,0.0,0 STARLINK-3352,1 51147U 22005AV  22095.91667824  .00065948  00000-0  41217-2 0  9997,2 51147  53.2192 265.5617 0001543  60.3475 262.7657 15.08853606  3653,6917.839,95.437,540.771,538.636,0.0
51147.0,STARLINK-3352,PAYLOAD,2022-04-06 14:00:01,15.08833718,0.0001274999999999,53.2194,262.5677,62.3309,284.0128,-0.0043453999999999,-0.00068772,0.0,0 STARLINK-3352,1 51147U 22005AV  22096.58334491 -.00068772  00000-0 -43454-2 0  9997,2 51147  53.2194 262.5677 0001275  62.3309 284.0128 15.08833718  3627,6917.9,95.438,540.6469999999998,538.883,0.0
51147.0,STARLINK-3352,PAYLOAD,2022-04-06 22:00:00,15.08744648,0.0001492,53.2193,261.0729,56.4628,301.4412,0.0061997,0.00099516,0.0,0 STARLINK-3352,1 51147U 22005AV  22096.91667824  .00099516  00000-0  61997-2 0  9993,2 51147  53.2193 261.0729 0001492  56.4628 301.4412 15.08744648 13418,6918.172,95.444,541.069,539.005,0.0
51147.0,STARLINK-3352,PAYLOAD,2022-04-07 14:00:01,15.088476000000002,0.0001539,53.2197,258.0794,63.793,317.2019,-0.0011554,-0.00018633,0.0,0 STARLINK-3352,1 51147U 22005AV  22097.58334491 -.00018633  00000-0 -11554-2 0  9995,2 51147  53.2197 258.0794 0001539  63.7930 317.2019 15.08847600  3621,6917.857,95.437,540.7869999999998,538.658,0.0
51147.0,STARLINK-3352,PAYLOAD,2022-04-07 20:00:01,15.08823206,0.0001652,53.2197,256.9584,57.6072,242.0942,0.0031023,0.00049409,0.0,0 STARLINK-3352,1 51147U 22005AV  22097.83334491  .00049409  00000-0  31023-2 0  9999,2 51147  53.2197 256.9584 0001652  57.6072 242.0942 15.08823206 13559,6917.932,95.439,540.94,538.654,0.0
51147.0,STARLINK-3352,PAYLOAD,2022-04-07 22:00:00,15.08827293,0.000161,53.2195,256.5843,55.7718,336.827,0.0033723,0.00053773,0.0,0 STARLINK-3352,1 51147U 22005AV  22097.91667824  .00053773  00000-0  33723-2 0  9995,2 51147  53.2195 256.5843 0001610  55.7718 336.8270 15.08827293  3602,6917.919,95.438,540.898,538.67,0.0
51147.0,STARLINK-3352,PAYLOAD,2022-04-08 14:00:03,15.08877194,0.0001629999999999,53.2199,253.5907,62.3249,353.6296,-0.002529,-0.00040353,0.0,0 STARLINK-3352,1 51147U 22005AV  22098.58336806 -.00040353  00000-0 -25290-2 0  9994,2 51147  53.2199 253.5907 0001630  62.3249 353.6296 15.08877194 13666,6917.767,95.435,540.759,538.504,0.0
51147.0,STARLINK-3352,PAYLOAD,2022-04-08 22:00:00,15.08840882,0.0001631999999999,53.2197,252.0955,54.5718,12.8791,-0.00038117,-6.349e-05,0.0,0 STARLINK-3352,1 51147U 22005AV  22098.91667824 -.00006349  00000-0 -38117-3 0  9998,2 51147  53.2197 252.0955 0001632  54.5718  12.8791 15.08840882  3608,6917.878000000002,95.437,540.872,538.614,0.0
51147.0,STARLINK-3352,PAYLOAD,2022-04-09 14:00:01,15.08836867,0.0001486,53.22,249.1022,58.6004,32.0051,-0.0013829,-0.00022227,0.0,0 STARLINK-3352,1 51147U 22005AV  22099.58334491 -.00022227  00000-0 -13829-2 0  9998,2 51147  53.2200 249.1022 0001486  58.6004  32.0051 15.08836867 13821,6917.89,95.438,540.783,538.727,0.0
51147.0,STARLINK-3352,PAYLOAD,2022-04-09 22:00:00,15.08825361,0.0001546,53.2196,247.6068,51.2568,50.9397,0.0024984,0.00039682,0.0,0 STARLINK-3352,1 51147U 22005AV  22099.91667824  .00039682  00000-0  24984-2 0  9999,2 51147  53.2196 247.6068 0001546  51.2568  50.9397 15.08825361  3625,6917.925,95.438,540.86,538.721,0.0
51147.0,STARLINK-3352,PAYLOAD,2022-04-10 06:00:02,15.08833385,0.0001357,53.2196,246.1087,58.8357,55.037,0.0036342,0.00058016,0.0,0 STARLINK-3352,1 51147U 22005AV  22100.25002315  .00058016  00000-0  36342-2 0  9990,2 51147  53.2196 246.1087 0001357  58.8357  55.0370 15.08833385 13925,6917.901,95.438,540.7040000000002,538.827,0.0
51147.0,STARLINK-3352,PAYLOAD,2022-04-10 14:00:01,15.08850763,0.0001574,53.2198,244.6136,59.9191,65.4644,-0.0010524,-0.00017003,0.0,0 STARLINK-3352,1 51147U 22005AV  22100.58334491 -.00017003  00000-0 -10524-2 0  9996,2 51147  53.2198 244.6136 0001574  59.9191  65.4644 15.08850763 13977,6917.847,95.437,540.8009999999998,538.624,0.0
51147.0,STARLINK-3352,PAYLOAD,2022-04-10 20:00:01,15.08838928,0.000167,53.2196,243.4923,54.7425,349.3555,0.0027068,0.00043053,0.0,0 STARLINK-3352,1 51147U 22005AV  22100.83334491  .00043053  00000-0  27068-2 0  9997,2 51147  53.2196 243.4923 0001670  54.7425 349.3555 15.08838928 14005,6917.884,95.438,540.904,538.5930000000002,0.0
51147.0,STARLINK-3352,PAYLOAD,2022-04-10 22:00:00,15.08862559,0.0001681,53.2192,243.1179,54.0639,82.9304,-4.395100000000001e-05,-9.88e-06,0.0,0 STARLINK-3352,1 51147U 22005AV  22100.91667824 -.00000988  00000-0 -43951-4 0  9998,2 51147  53.2192 243.1179 0001681  54.0639  82.9304 15.08862559  3628,6917.811,95.436,540.839,538.514,0.0
51147.0,STARLINK-3352,PAYLOAD,2022-04-11 04:00:01,15.0883918,0.0001559,53.2194,241.9942,62.3969,353.3833,0.0010662,0.00016721,0.0,0 STARLINK-3352,1 51147U 22005AV  22101.16668981  .00016721  00000-0  10662-2 0  9992,2 51147  53.2194 241.9942 0001559  62.3969 353.3833 15.08839180 14051,6917.8830000000025,95.438,540.826,538.669,0.0
51147.0,STARLINK-3352,PAYLOAD,2022-04-11 14:00:01,15.08878641,0.0001598,53.2194,240.1249,60.464,99.7418,-0.0043698,-0.00069238,0.0,0 STARLINK-3352,1 51147U 22005AV  22101.58334491 -.00069238  00000-0 -43698-2 0  9992,2 51147  53.2194 240.1249 0001598  60.4640  99.7418 15.08878641  3615,6917.762,95.435,540.7330000000002,538.5219999999998,0.0
51147.0,STARLINK-3352,PAYLOAD,2022-04-11 20:00:01,15.08820613,0.0001554,53.2191,239.0035,53.6683,25.2547,-0.00075048,-0.00012206,0.0,0 STARLINK-3352,1 51147U 22005AV  22101.83334491 -.00012206  00000-0 -75048-3 0  9998,2 51147  53.2191 239.0035 0001554  53.6683  25.2547 15.08820613 14160,6917.94,95.439,540.88,538.73,0.0
51147.0,STARLINK-3352,PAYLOAD,2022-04-11 22:00:00,15.08822437,0.0001520999999999,53.2188,238.629,52.1182,119.6965,-0.0013843,-0.00022241,0.0,0 STARLINK-3352,1 51147U 22005AV  22101.91667824 -.00022241  00000-0 -13843-2 0  9990,2 51147  53.2188 238.6290 0001521  52.1182 119.6965 15.08822437  3623,6917.934,95.439,540.851,538.747,0.0
51147.0,STARLINK-3352,PAYLOAD,2022-04-12 12:00:00,15.08854945,0.0001529,53.2177,236.0156,54.6616,47.3703,-0.0018266,-0.00029253,0.0,0 STARLINK-3352,1 51147U 22005AV  22102.50001157 -.00029253  00000-0 -18266-2 0  9991,2 51147  53.2177 236.0156 0001529  54.6616  47.3703 15.08854945 14269,6917.835,95.437,540.757,538.6419999999998,0.0
